[{"OBJECT_NAME":"SITRO-AIS 5 (KATYS)","OBJECT_ID":"2023-091L","EPOCH":"2026-03-09T22:36:44.932608","MEAN_MOTION":15.27079182,"ECCENTRICITY":0.00133776,"INCLINATION":97.5176,"RA_OF_ASC_NODE":132.0172,"ARG_OF_PERICENTER":94.5677,"MEAN_ANOMALY":265.709,"EPHEMERIS_TYPE":0,"CLASSIFICATION_TYPE":"U","NORAD_CAT_ID":57176,"ELEMENT_SET_NO":999,"REV_AT_EPOCH":14918,"BSTAR":0.00057530772,"MEAN_MOTION_DOT":0.00015262,"MEAN_MOTION_DDOT":0},{"OBJECT_NAME":"STARLINK-31274","OBJECT_ID":"2024-041E","EPOCH":"2026-03-09T01:19:52.456800","MEAN_MOTION":15.27581829,"ECCENTRICITY":8.245e-5,"INCLINATION":43.0034,"RA_OF_ASC_NODE":314.3613,"ARG_OF_PERICENTER":276.4508,"MEAN_ANOMALY":83.625,"EPHEMERIS_TYPE":0,"CLASSIFICATION_TYPE":"U","NORAD_CAT_ID":59078,"ELEMENT_SET_NO":999,"REV_AT_EPOCH":11417,"BSTAR":2.995798e-5,"MEAN_MOTION_DOT":5.63e-6,"MEAN_MOTION_DDOT":0}]
